SKYSAT-A                
1 39418U 13066C   26204.69659779  .00002918  00000+0  16737-3 0  9999
2 39418  97.3797 252.9300 0021316 183.2165 176.8933 15.13149367694005
SKYSAT-B                
1 40072U 14037D   26204.83918674  .00001208  00000+0  13790-3 0  9991
2 40072  98.3859 165.9005 0006150 146.8472 213.3130 14.88108065651418
SKYSAT-C1               
1 41601U 16040C   26204.55422765  .00008608  00000+0  24102-3 0  9996
2 41601  96.9557 234.3127 0001052 184.1507 175.9730 15.36853586563456
SKYSAT-C4               
1 41771U 16058B   26204.50513755  .00017484  00000+0  31709-3 0  9991
2 41771  96.9177 224.7807 0003569 107.7824 252.3818 15.49650272551093
SKYSAT-C5               
1 41772U 16058C   26204.10558117  .00007252  00000+0  22409-3 0  9998
2 41772  97.0456 243.1260 0003402 142.5858 217.5623 15.33797689549253
SKYSAT-C2               
1 41773U 16058D   26204.32921844  .00012159  00000+0  27930-3 0  9990
2 41773  97.0165 225.0801 0000661 273.3925  86.7248 15.42821230550625
SKYSAT-C3               
1 41774U 16058E   26204.54179846  .00023979  00000+0  37171-3 0  9992
2 41774  96.9002 234.0233 0002886 123.0560 237.0972 15.54002189551757
SKYSAT-C11              
1 42987U 17068A   26204.39086712  .00030498  00000+0  38262-3 0  9999
2 42987  97.4380 354.8568 0001508 147.1025 213.0325 15.59689712488881
SKYSAT-C10              
1 42988U 17068B   26204.79926669  .00009483  00000+0  27945-3 0  9994
2 42988  97.4540 342.0280 0001562 110.3852 249.7559 15.35247695487978
SKYSAT-C9               
1 42989U 17068C   26204.31978231  .00012642  00000+0  29466-3 0  9996
2 42989  97.4460 342.8295 0007944  17.0072 343.1440 15.42362279488323
SKYSAT-C8               
1 42990U 17068D   26204.32382802  .00010428  00000+0  28469-3 0  9994
2 42990  97.4557 341.4865 0001312 107.4214 252.7174 15.37611067487868
SKYSAT-C7               
1 42991U 17068E   26204.31857238  .00010274  00000+0  28091-3 0  9994
2 42991  97.4568 342.4736 0004958 351.7605   8.3557 15.37559306487920
SKYSAT-C6               
1 42992U 17068F   26204.80231610  .00008652  00000+0  26301-3 0  9998
2 42992  97.4606 342.7790 0004765  67.6027 292.5720 15.34282201487938
SKYSAT-C12              
1 43797U 18099AR  26204.45355036  .00017910  00000+0  32071-3 0  9995
2 43797  96.9257 226.2572 0004621  51.9908 308.1761 15.50003314427473
FLOCK 4Q-16             
1 58271U 23174R   26204.51448360  .00024075  00000+0  42036-3 0  9990
2 58271  97.3810 293.5009 0006366  51.8524 308.3301 15.50662486151207
FLOCK 4Q-11             
1 58273U 23174T   26204.87185284  .00021811  00000+0  37415-3 0  9994
2 58273  97.3847 294.5140 0005744  44.6297 315.5417 15.51185995151273
FLOCK 4Q-28             
1 58280U 23174AA  26204.50608157  .00033208  00000+0  45753-3 0  9998
2 58280  97.3874 296.9530 0004004  35.4973 324.6548 15.57163218151396
FLOCK 4Q-27             
1 58282U 23174AC  26204.69953838  .00028652  00000+0  39206-3 0  9992
2 58282  97.3803 296.5540 0003153  41.2848 318.8645 15.57379701151431
PELICAN-1               
1 58296U 23174AS  26204.26775304  .00010345  00000+0  79694-4 0  9996
2 58296  97.4027 306.8421 0004949 176.8672 183.2623 15.72179450151832
FLOCK 4Q-7              
1 58318U 23174BQ  26204.71543054  .00034122  00000+0  45869-3 0  9991
2 58318  97.3901 297.5075 0003955   6.7942 353.3367 15.57820445151436
FLOCK 4Q-2              
1 58320U 23174BS  26204.85689007  .00026567  00000+0  45574-3 0  9995
2 58320  97.3838 294.2086 0003900  20.6275 339.5134 15.51157397151282
FLOCK 4Q-9              
1 58322U 23174BU  26204.87058785  .00023232  00000+0  39096-3 0  9990
2 58322  97.3845 294.3431 0004768  19.2136 340.9295 15.51719592151274
FLOCK 4Q-4              
1 58327U 23174BZ  26204.69965888  .00022136  00000+0  39360-3 0  9992
2 58327  97.3824 293.2595 0005003  49.8831 310.2859 15.50171100151215
FLOCK 4Q-13             
1 58328U 23174CA  26204.86143816  .00021829  00000+0  34856-3 0  9994
2 58328  97.3998 296.7912 0005050  26.8917 333.2596 15.53198767151361
FLOCK 4BE-18            
1 60480U 24149N   26204.67048575  .00018379  00000+0  41923-3 0  9993
2 60480  97.3718 288.8084 0005393 121.7969 238.3805 15.42939225107939
FLOCK 4BE-7             
1 60481U 24149P   26204.19109156  .00026956  00000+0  63799-3 0  9999
2 60481  97.3746 287.6020 0004464 129.4646 230.6996 15.41756969107794
FLOCK 4BE-36            
1 60486U 24149U   26204.16869911  .00017889  00000+0  39729-3 0  9994
2 60486  97.3733 289.0528 0005177 131.0142 229.1555 15.43742236107907
FLOCK 4BE-25            
1 60487U 24149V   26204.23184163  .00014630  00000+0  37195-3 0  9998
2 60487  97.3785 287.6475 0003997 124.8086 235.3536 15.39710741107780
FLOCK 4BE-31            
1 60488U 24149W   26204.68207838  .00021526  00000+0  45112-3 0  9993
2 60488  97.3786 290.5435 0004078 129.4377 230.7233 15.45427414108015
FLOCK 4BE-20            
1 60489U 24149X   26204.66796281  .00011214  00000+0  29260-3 0  9996
2 60489  97.3680 286.8738 0005483 129.9801 230.1926 15.38972766107829
FLOCK 4BE-23            
1 60490U 24149Y   26204.21301860  .00014334  00000+0  37875-3 0  9991
2 60490  97.3764 286.8110 0005117 135.0634 225.1027 15.38527060107733
FLOCK 4BE-17            
1 60492U 24149AA  26204.66600694  .00017098  00000+0  41920-3 0  9995
2 60492  97.3761 288.3466 0004730 125.5199 234.6489 15.40780910107873
FLOCK 4BE-22            
1 60494U 24149AC  26204.48437730  .00017329  00000+0  40405-3 0  9990
2 60494  97.3725 288.4144 0005013 133.7241 226.4422 15.42293661107895
FLOCK 4BE-34            
1 60495U 24149AD  26204.50239443  .00016907  00000+0  39616-3 0  9998
2 60495  97.3766 289.2766 0005386 138.8881 221.2773 15.42148638107928
FLOCK 4BE-32            
1 60497U 24149AF  26204.70478829  .00018202  00000+0  40994-3 0  9996
2 60497  97.3709 289.0550 0005349 135.5347 224.6331 15.43320958107965
FLOCK 4BE-11            
1 60501U 24149AK  26204.22681816  .00019682  00000+0  43160-3 0  9992
2 60501  97.3687 288.8351 0005374 136.9580 223.2090 15.44098653107911
FLOCK 4BE-24            
1 60505U 24149AP  26204.46846662  .00021769  00000+0  47285-3 0  9995
2 60505  97.3698 289.3533 0005584 146.1141 214.0465 15.44360001107962
TANAGER-1               
1 60507U 24149AR  26203.53766765  .00000262  00000+0  76110-5 0  9995
2 60507  97.2319 297.6298 0003600 123.9157 236.2434 15.43942180108494
FLOCK 4BE-29            
1 60509U 24149AT  26204.71026292  .00050605  00000+0  10313-2 0  9998
2 60509  97.3796 291.1722 0004104 156.1376 204.0064 15.46067747108052
FLOCK 4BE-2             
1 60511U 24149AV  26204.48763122  .00074897  00000+0  10389-2 0  9997
2 60511  97.3821 292.9273 0005191 151.7186 208.4352 15.56787431108149
FLOCK 4BE-13            
1 60512U 24149AW  26204.22817936  .00014795  00000+0  33975-3 0  9991
2 60512  97.3709 289.0355 0005498 132.7555 227.4156 15.42784687107925
FLOCK 4BE-27            
1 60513U 24149AX  26204.18453645  .00009907  00000+0  29375-3 0  9998
2 60513  97.3815 286.0653 0004716 157.3005 202.8447 15.35024754107662
FLOCK 4BE-9             
1 60514U 24149AY  26204.70585122  .00016823  00000+0  39839-3 0  9994
2 60514  97.3781 289.3561 0004245 148.9419 211.2080 15.41836451107941
FLOCK 4BE-6             
1 60516U 24149BA  26204.69962345  .00015058  00000+0  37287-3 0  9994
2 60516  97.3776 288.6374 0004863 148.8038 211.3497 15.40506954107891
FLOCK 4BE-14            
1 60517U 24149BB  26204.19376941  .00019396  00000+0  45531-3 0  9991
2 60517  97.3682 288.2986 0005896 152.5483 207.6076 15.42062963107874
FLOCK 4BE-1             
1 60518U 24149BC  26204.17153341  .00020399  00000+0  45281-3 0  9994
2 60518  97.3765 289.6846 0005569 152.3818 207.7726 15.43728639107923
FLOCK 4BE-28            
1 60519U 24149BD  26204.70910866  .00049849  00000+0  98784-3 0  9994
2 60519  97.3736 291.0795 0005566 151.2578 208.8980 15.46882231108084
FLOCK 4BE-5             
1 60559U 24149CV  26204.20141676  .00016830  00000+0  40664-3 0  9996
2 60559  97.3834 288.5706 0004600 149.4959 210.6556 15.41228821107825
FLOCK 4BE-3             
1 60561U 24149CX  26204.22487287  .00018748  00000+0  43238-3 0  9992
2 60561  97.3685 288.5068 0005499 146.3953 213.7644 15.42603740107897
FLOCK 4BE-19            
1 60563U 24149CZ  26204.19723176  .00026078  00000+0  53587-3 0  9993
2 60563  97.3733 290.2079 0006176 152.1557 208.0024 15.45955159107989
FLOCK 4G-8              
1 62613U 25009E   26204.18527523  .00010308  00000+0  35346-3 0  9996
2 62613  97.3995 286.0520 0004890 166.3995 193.7378 15.30356602 84422
FLOCK 4G-13             
1 62621U 25009N   26204.17137926  .00098212  00000+0  17344-2 0  9995
2 62621  97.3935 288.2217 0006588 178.4244 181.7030 15.49990996 84566
FLOCK 4G-9              
1 62622U 25009P   26204.67530845  .00008713  00000+0  31553-3 0  9994
2 62622  97.3950 285.3674 0004918 175.0610 185.0679 15.28619488 84437
FLOCK 4G-7              
1 62624U 25009R   26204.49831262  .00010744  00000+0  37246-3 0  9995
2 62624  97.3934 285.6236 0003374 160.1934 199.9438 15.29995496 84453
FLOCK 4G-12             
1 62625U 25009S   26204.88653795  .00009708  00000+0  33766-3 0  9993
2 62625  97.4012 286.5675 0005007 161.7284 198.4137 15.29910770 84518
FLOCK 4G-11             
1 62629U 25009W   26204.67457201  .00010932  00000+0  37861-3 0  9999
2 62629  97.3913 285.9049 0003465 160.1128 200.0248 15.30021009 84495
PELICAN-2               
1 62631U 25009Y   26203.24842226  .00000007  00000+0  21292-5 0  9994
2 62631  97.2019 293.6933 0001274  36.2458 323.8875 15.40685259 84952
FLOCK 4G-26             
1 62633U 25009AA  26204.22932133  .00012735  00000+0  43794-3 0  9992
2 62633  97.4008 286.0769 0004359 154.3716 205.7741 15.30210618 84427
FLOCK 4G-28             
1 62634U 25009AB  26204.49371066  .00009284  00000+0  27236-3 0  9992
2 62634  97.4016 289.1920 0002751 144.8328 215.3097 15.35388694 84658
FLOCK 4G-24             
1 62637U 25009AE  26204.17370087  .00010824  00000+0  36957-3 0  9994
2 62637  97.4013 286.3309 0004275 144.7957 215.3567 15.30483228 84430
